[{"OBJECT_NAME":"HULIANWANG DIGUI-113","OBJECT_ID":"2025-285J","EPOCH":"2026-03-07T05:47:18.697632","MEAN_MOTION":13.29330256,"ECCENTRICITY":1.0e-5,"INCLINATION":50.0098,"RA_OF_ASC_NODE":151.2965,"ARG_OF_PERICENTER":306.263,"MEAN_ANOMALY":53.8233,"EPHEMERIS_TYPE":0,"CLASSIFICATION_TYPE":"U","NORAD_CAT_ID":66923,"ELEMENT_SET_NO":999,"REV_AT_EPOCH":1250,"BSTAR":-0.000202869,"MEAN_MOTION_DOT":-2.18e-6,"MEAN_MOTION_DDOT":0},{"OBJECT_NAME":"HULIANWANG DIGUI-114","OBJECT_ID":"2025-287A","EPOCH":"2026-03-07T05:27:37.386720","MEAN_MOTION":13.244159,"ECCENTRICITY":0.00019712,"INCLINATION":86.497,"RA_OF_ASC_NODE":316.842,"ARG_OF_PERICENTER":80.147,"MEAN_ANOMALY":279.9887,"EPHEMERIS_TYPE":0,"CLASSIFICATION_TYPE":"U","NORAD_CAT_ID":66953,"ELEMENT_SET_NO":999,"REV_AT_EPOCH":1184,"BSTAR":9.8002648e-5,"MEAN_MOTION_DOT":5.7e-7,"MEAN_MOTION_DDOT":0},{"OBJECT_NAME":"HULIANWANG DIGUI-115","OBJECT_ID":"2025-287B","EPOCH":"2026-03-07T07:05:30.487200","MEAN_MOTION":13.24416021,"ECCENTRICITY":0.00020487,"INCLINATION":86.4986,"RA_OF_ASC_NODE":316.8284,"ARG_OF_PERICENTER":79.0092,"MEAN_ANOMALY":281.1272,"EPHEMERIS_TYPE":0,"CLASSIFICATION_TYPE":"U","NORAD_CAT_ID":66954,"ELEMENT_SET_NO":999,"REV_AT_EPOCH":1185,"BSTAR":8.1921195e-5,"MEAN_MOTION_DOT":5.0e-7,"MEAN_MOTION_DDOT":0},{"OBJECT_NAME":"HULIANWANG DIGUI-116","OBJECT_ID":"2025-287C","EPOCH":"2026-03-07T06:54:38.429856","MEAN_MOTION":13.24416101,"ECCENTRICITY":0.00020471,"INCLINATION":86.4926,"RA_OF_ASC_NODE":316.7664,"ARG_OF_PERICENTER":78.8221,"MEAN_ANOMALY":281.3143,"EPHEMERIS_TYPE":0,"CLASSIFICATION_TYPE":"U","NORAD_CAT_ID":66955,"ELEMENT_SET_NO":999,"REV_AT_EPOCH":1185,"BSTAR":6.6136317e-5,"MEAN_MOTION_DOT":4.3e-7,"MEAN_MOTION_DDOT":0},{"OBJECT_NAME":"HULIANWANG DIGUI-117","OBJECT_ID":"2025-287D","EPOCH":"2026-03-07T06:43:49.374048","MEAN_MOTION":13.24414228,"ECCENTRICITY":0.0001139,"INCLINATION":86.4987,"RA_OF_ASC_NODE":316.8217,"ARG_OF_PERICENTER":19.6297,"MEAN_ANOMALY":340.4881,"EPHEMERIS_TYPE":0,"CLASSIFICATION_TYPE":"U","NORAD_CAT_ID":66956,"ELEMENT_SET_NO":999,"REV_AT_EPOCH":1185,"BSTAR":8.125808e-5,"MEAN_MOTION_DOT":5.0e-7,"MEAN_MOTION_DDOT":0},{"OBJECT_NAME":"HULIANWANG DIGUI-118","OBJECT_ID":"2025-287E","EPOCH":"2026-03-07T06:32:55.087584","MEAN_MOTION":13.24415608,"ECCENTRICITY":0.00020375,"INCLINATION":86.4963,"RA_OF_ASC_NODE":316.7952,"ARG_OF_PERICENTER":78.7503,"MEAN_ANOMALY":281.386,"EPHEMERIS_TYPE":0,"CLASSIFICATION_TYPE":"U","NORAD_CAT_ID":66957,"ELEMENT_SET_NO":999,"REV_AT_EPOCH":1185,"BSTAR":0.00015165678,"MEAN_MOTION_DOT":8.0e-7,"MEAN_MOTION_DDOT":0},{"OBJECT_NAME":"HULIANWANG DIGUI-119","OBJECT_ID":"2025-295A","EPOCH":"2026-03-06T22:13:42.952512","MEAN_MOTION":13.46538062,"ECCENTRICITY":0.00011662,"INCLINATION":49.9835,"RA_OF_ASC_NODE":33.2787,"ARG_OF_PERICENTER":148.3017,"MEAN_ANOMALY":211.7933,"EPHEMERIS_TYPE":0,"CLASSIFICATION_TYPE":"U","NORAD_CAT_ID":67059,"ELEMENT_SET_NO":999,"REV_AT_EPOCH":1188,"BSTAR":9.5620106e-5,"MEAN_MOTION_DOT":-7.2e-7,"MEAN_MOTION_DDOT":0},{"OBJECT_NAME":"HULIANWANG DIGUI-120","OBJECT_ID":"2025-295B","EPOCH":"2026-03-06T21:53:47.754528","MEAN_MOTION":13.46886837,"ECCENTRICITY":6.903e-5,"INCLINATION":50.0312,"RA_OF_ASC_NODE":33.2379,"ARG_OF_PERICENTER":259.7821,"MEAN_ANOMALY":100.2981,"EPHEMERIS_TYPE":0,"CLASSIFICATION_TYPE":"U","NORAD_CAT_ID":67060,"ELEMENT_SET_NO":999,"REV_AT_EPOCH":1188,"BSTAR":9.4983403e-5,"MEAN_MOTION_DOT":-7.2e-7,"MEAN_MOTION_DDOT":0},{"OBJECT_NAME":"HULIANWANG DIGUI-121","OBJECT_ID":"2025-295C","EPOCH":"2026-03-06T20:17:24.916992","MEAN_MOTION":13.46944278,"ECCENTRICITY":9.14e-6,"INCLINATION":49.9987,"RA_OF_ASC_NODE":33.5098,"ARG_OF_PERICENTER":40.7039,"MEAN_ANOMALY":319.3847,"EPHEMERIS_TYPE":0,"CLASSIFICATION_TYPE":"U","NORAD_CAT_ID":67061,"ELEMENT_SET_NO":999,"REV_AT_EPOCH":1187,"BSTAR":9.7629422e-5,"MEAN_MOTION_DOT":-7.1e-7,"MEAN_MOTION_DDOT":0},{"OBJECT_NAME":"HULIANWANG DIGUI-122","OBJECT_ID":"2025-295D","EPOCH":"2026-03-06T23:30:20.459808","MEAN_MOTION":13.46845854,"ECCENTRICITY":7.55e-5,"INCLINATION":50.009,"RA_OF_ASC_NODE":32.911,"ARG_OF_PERICENTER":331.868,"MEAN_ANOMALY":28.2159,"EPHEMERIS_TYPE":0,"CLASSIFICATION_TYPE":"U","NORAD_CAT_ID":67062,"ELEMENT_SET_NO":999,"REV_AT_EPOCH":1189,"BSTAR":9.2416885e-5,"MEAN_MOTION_DOT":-7.4e-7,"MEAN_MOTION_DDOT":0},{"OBJECT_NAME":"HULIANWANG DIGUI-123","OBJECT_ID":"2025-295E","EPOCH":"2026-03-06T21:33:11.229696","MEAN_MOTION":13.46994361,"ECCENTRICITY":6.455e-5,"INCLINATION":50.0059,"RA_OF_ASC_NODE":33.1502,"ARG_OF_PERICENTER":346.599,"MEAN_ANOMALY":13.4873,"EPHEMERIS_TYPE":0,"CLASSIFICATION_TYPE":"U","NORAD_CAT_ID":67063,"ELEMENT_SET_NO":999,"REV_AT_EPOCH":1188,"BSTAR":0.00012325368,"MEAN_MOTION_DOT":-5.5e-7,"MEAN_MOTION_DDOT":0},{"OBJECT_NAME":"HULIANWANG DIGUI-124","OBJECT_ID":"2025-295F","EPOCH":"2026-03-06T23:10:37.030368","MEAN_MOTION":13.47115276,"ECCENTRICITY":8.938e-5,"INCLINATION":50.0029,"RA_OF_ASC_NODE":32.7983,"ARG_OF_PERICENTER":27.3896,"MEAN_ANOMALY":332.7031,"EPHEMERIS_TYPE":0,"CLASSIFICATION_TYPE":"U","NORAD_CAT_ID":67064,"ELEMENT_SET_NO":999,"REV_AT_EPOCH":1189,"BSTAR":9.6708726e-5,"MEAN_MOTION_DOT":-7.1e-7,"MEAN_MOTION_DDOT":0},{"OBJECT_NAME":"HULIANWANG DIGUI-125","OBJECT_ID":"2025-295G","EPOCH":"2026-03-06T23:00:51.509664","MEAN_MOTION":13.47592614,"ECCENTRICITY":0.00015167,"INCLINATION":49.9992,"RA_OF_ASC_NODE":32.7597,"ARG_OF_PERICENTER":20.3092,"MEAN_ANOMALY":339.7849,"EPHEMERIS_TYPE":0,"CLASSIFICATION_TYPE":"U","NORAD_CAT_ID":67065,"ELEMENT_SET_NO":999,"REV_AT_EPOCH":1189,"BSTAR":9.8578062e-5,"MEAN_MOTION_DOT":-7.0e-7,"MEAN_MOTION_DDOT":0},{"OBJECT_NAME":"HULIANWANG DIGUI-126","OBJECT_ID":"2025-295H","EPOCH":"2026-03-06T22:50:29.675904","MEAN_MOTION":13.47239101,"ECCENTRICITY":0.00011827,"INCLINATION":50.002,"RA_OF_ASC_NODE":32.7159,"ARG_OF_PERICENTER":91.7957,"MEAN_ANOMALY":268.3058,"EPHEMERIS_TYPE":0,"CLASSIFICATION_TYPE":"U","NORAD_CAT_ID":67066,"ELEMENT_SET_NO":999,"REV_AT_EPOCH":1189,"BSTAR":6.7536572e-5,"MEAN_MOTION_DOT":-8.9e-7,"MEAN_MOTION_DDOT":0},{"OBJECT_NAME":"HULIANWANG DIGUI-127","OBJECT_ID":"2025-295J","EPOCH":"2026-03-06T19:02:03.997248","MEAN_MOTION":13.47465042,"ECCENTRICITY":9.385e-5,"INCLINATION":50.0031,"RA_OF_ASC_NODE":33.2352,"ARG_OF_PERICENTER":9.6913,"MEAN_ANOMALY":350.3985,"EPHEMERIS_TYPE":0,"CLASSIFICATION_TYPE":"U","NORAD_CAT_ID":67067,"ELEMENT_SET_NO":999,"REV_AT_EPOCH":1187,"BSTAR":-0.00027910451,"MEAN_MOTION_DOT":-3.02e-6,"MEAN_MOTION_DDOT":0},{"OBJECT_NAME":"HULIANWANG DIGUI-128","OBJECT_ID":"2025-311A","EPOCH":"2026-03-07T04:04:02.169120","MEAN_MOTION":13.31089696,"ECCENTRICITY":0.00010569,"INCLINATION":50.0058,"RA_OF_ASC_NODE":121.4091,"ARG_OF_PERICENTER":109.6244,"MEAN_ANOMALY":250.4743,"EPHEMERIS_TYPE":0,"CLASSIFICATION_TYPE":"U","NORAD_CAT_ID":67236,"ELEMENT_SET_NO":999,"REV_AT_EPOCH":977,"BSTAR":0.00012684048,"MEAN_MOTION_DOT":-6.4e-7,"MEAN_MOTION_DDOT":0}]
